{ "satellites":[{"id":"satellite_JAS-2 (FO-29)",  "name":"JAS-2 (FO-29)",  "color":"Yellow",  "czml": null, "tle1":"1 24278U 96046B   22150.83441200  .00000004  00000+0  41611-4 0  9990", "tle2":"2 24278  98.5170 176.9434 0349728 329.1914  28.9108 13.53115353273225", "beams":[{"id":"satname:_JAS-2 (FO-29)_beamname:_Beam1",  "name":"Beam1",  "satellite":"JAS-2 (FO-29)", "data": null, "usage":"D", "band":"Ku", "locationx":0, "locationy":0.7, "maxgain":50, "mingain":46, "semimajoraxismaxgain":450000, "eccentricity":0.8, "step":1, "tightness":0.5, "rotationangle":30},{"id":"satname:_JAS-2 (FO-29)_beamname:_Beam2",  "name":"Beam2",  "satellite":"JAS-2 (FO-29)", "data": null, "usage":"D", "band":"S", "locationx":0, "locationy":34, "maxgain":52, "mingain":48, "semimajoraxismaxgain":500000, "eccentricity":0.6, "step":1, "tightness":0.5, "rotationangle":40}]}], "dishes":[{"id":"dish_Dish1","name":"Dish1","longitude":"-92.06646001752898","latitude":"40.705659994965764","size":"100","gain":"40","efficiencyk":"4","usage":"Downlink"}], "currentbeam": null }
